[{"OBJECT_NAME":"OBJECT L","OBJECT_ID":"2023-085L","EPOCH":"2026-03-09T23:02:21.999840","MEAN_MOTION":15.29079976,"ECCENTRICITY":0.0005428,"INCLINATION":97.486,"RA_OF_ASC_NODE":178.8598,"ARG_OF_PERICENTER":50.8528,"MEAN_ANOMALY":309.3193,"EPHEMERIS_TYPE":0,"CLASSIFICATION_TYPE":"U","NORAD_CAT_ID":57014,"ELEMENT_SET_NO":999,"REV_AT_EPOCH":15144,"BSTAR":0.00063462603,"MEAN_MOTION_DOT":0.00017871,"MEAN_MOTION_DDOT":0},{"OBJECT_NAME":"STARLINK-34236","OBJECT_ID":"2025-144V","EPOCH":"2026-03-09T13:42:59.202720","MEAN_MOTION":15.30196896,"ECCENTRICITY":0.0001155,"INCLINATION":53.16,"RA_OF_ASC_NODE":181.5955,"ARG_OF_PERICENTER":78.1403,"MEAN_ANOMALY":281.9727,"EPHEMERIS_TYPE":0,"CLASSIFICATION_TYPE":"U","NORAD_CAT_ID":64743,"ELEMENT_SET_NO":999,"REV_AT_EPOCH":3969,"BSTAR":0.00070619,"MEAN_MOTION_DOT":0.00020612,"MEAN_MOTION_DDOT":0}]
